COSMOS 2251 DEB         
1 35835U 93036ATH 26112.06515853  .00000978  00000+0  65104-3 0  9992
2 35835  74.0623  49.2031 0294552 161.3199 199.9018 13.83337141635010
COSMOS 2251 DEB         
1 35836U 93036ATJ 26115.83829440  .00012200  00000+0  18334-2 0  9994
2 35836  74.0299 271.6842 0020619 298.4668  61.4427 14.74419135654940
COSMOS 2251 DEB         
1 35837U 93036ATK 26106.00411411  .00000816  00000+0  58384-3 0  9999
2 35837  73.7286   0.6793 0413226 262.2859 111.4366 13.64719768596710
COSMOS 2251 DEB         
1 35840U 93036ATN 26110.73770768  .00004779  00000+0  14318-2 0  9991
2 35840  73.9303 278.7638 0114594 152.4420 208.2875 14.39323735871468
COSMOS 2251 DEB         
1 35883U 93036ATW 26115.45281582  .00000664  00000+0  16827-3 0  9990
2 35883  74.0232 178.4057 0084510 273.8993 103.5812 14.50901700643255
COSMOS 2251 DEB         
1 35884U 93036ATX 26113.66676961  .00001949  00000+0  76269-3 0  9994
2 35884  73.9880  96.9082 0114362 213.4250 145.9645 14.26656963242384
COSMOS 2251 DEB         
1 35885U 93036ATY 26115.51045728  .00000615  00000+0  21235-3 0  9994
2 35885  74.0293  48.4406 0022803 102.2199 258.1511 14.37767729669389
COSMOS 2251 DEB         
1 35888U 93036AUB 26115.31252684  .00001240  00000+0  26675-3 0  9994
2 35888  74.0301 102.2891 0050536 201.4836 158.4209 14.58859742882218
COSMOS 2251 DEB         
1 35890U 93036AUD 26112.35554547  .00004660  00000+0  96499-3 0  9991
2 35890  73.9362 352.4765 0054528  92.0492 268.6919 14.59606001670555
COSMOS 2251 DEB         
1 35891U 93036AUE 26115.48258427  .00054263  00000+0  97337-3 0  9993
2 35891  73.9820 163.6406 0036775 262.0461  97.6577 15.48892997692800
COSMOS 2251 DEB         
1 35895U 93036AUJ 26100.82403680  .00001464  00000+0  80810-3 0  9995
2 35895  74.0489 140.9499 0204787 212.2492 146.5989 14.02261385606815
COSMOS 2251 DEB         
1 35898U 93036AUM 26115.11640225  .00005784  00000+0  47586-3 0  9996
2 35898  73.9919  27.3152 0078152 138.7347 288.2923 14.96951863688041
COSMOS 2251 DEB         
1 35901U 93036AUQ 26114.70668236  .00113971  00000+0  36417-2 0  9995
2 35901  74.0027 104.3005 0011056 245.5809 114.4241 15.31867847881452
COSMOS 2251 DEB         
1 35902U 93036AUR 26111.36371735  .00001958  00000+0  76180-3 0  9993
2 35902  73.9859 359.1621 0101941  86.3707 274.9092 14.27624702629797
COSMOS 2251 DEB         
1 35905U 93036AUU 26115.20816936  .00004823  00000+0  34962-3 0  9996
2 35905  74.0325 299.3355 0085392 343.6572  16.1863 15.01306777905846
COSMOS 2251 DEB         
1 35959U 93036AUZ 26115.11923638  .00000202  00000+0  81205-4 0  9993
2 35959  74.0323  67.8733 0021380 121.1983 239.1269 14.34230204868406
