[{"OBJECT_NAME":"COSMOS 2251 DEB","OBJECT_ID":"1993-036ATH","EPOCH":"2026-04-22T01:33:49.696992","MEAN_MOTION":13.83337141,"ECCENTRICITY":0.02945522,"INCLINATION":74.0623,"RA_OF_ASC_NODE":49.2031,"ARG_OF_PERICENTER":161.3199,"MEAN_ANOMALY":199.9018,"EPHEMERIS_TYPE":0,"CLASSIFICATION_TYPE":"U","NORAD_CAT_ID":35835,"ELEMENT_SET_NO":999,"REV_AT_EPOCH":63501,"BSTAR":0.00065103933,"MEAN_MOTION_DOT":9.78e-6,"MEAN_MOTION_DDOT":0},{"OBJECT_NAME":"COSMOS 2251 DEB","OBJECT_ID":"1993-036ATJ","EPOCH":"2026-04-25T20:07:08.636160","MEAN_MOTION":14.74419135,"ECCENTRICITY":0.002062,"INCLINATION":74.0299,"RA_OF_ASC_NODE":271.6842,"ARG_OF_PERICENTER":298.4668,"MEAN_ANOMALY":61.4427,"EPHEMERIS_TYPE":0,"CLASSIFICATION_TYPE":"U","NORAD_CAT_ID":35836,"ELEMENT_SET_NO":999,"REV_AT_EPOCH":65494,"BSTAR":0.0018334,"MEAN_MOTION_DOT":0.000122,"MEAN_MOTION_DDOT":0},{"OBJECT_NAME":"COSMOS 2251 DEB","OBJECT_ID":"1993-036ATK","EPOCH":"2026-04-16T00:05:55.459104","MEAN_MOTION":13.64719768,"ECCENTRICITY":0.0413226,"INCLINATION":73.7286,"RA_OF_ASC_NODE":0.6793,"ARG_OF_PERICENTER":262.2859,"MEAN_ANOMALY":111.4366,"EPHEMERIS_TYPE":0,"CLASSIFICATION_TYPE":"U","NORAD_CAT_ID":35837,"ELEMENT_SET_NO":999,"REV_AT_EPOCH":59671,"BSTAR":0.0005838375,"MEAN_MOTION_DOT":8.16e-6,"MEAN_MOTION_DDOT":0},{"OBJECT_NAME":"COSMOS 2251 DEB","OBJECT_ID":"1993-036ATN","EPOCH":"2026-04-20T17:42:17.943552","MEAN_MOTION":14.39323735,"ECCENTRICITY":0.01145946,"INCLINATION":73.9303,"RA_OF_ASC_NODE":278.7638,"ARG_OF_PERICENTER":152.442,"MEAN_ANOMALY":208.2875,"EPHEMERIS_TYPE":0,"CLASSIFICATION_TYPE":"U","NORAD_CAT_ID":35840,"ELEMENT_SET_NO":999,"REV_AT_EPOCH":87146,"BSTAR":0.0014318035,"MEAN_MOTION_DOT":4.779e-5,"MEAN_MOTION_DDOT":0},{"OBJECT_NAME":"COSMOS 2251 DEB","OBJECT_ID":"1993-036ATW","EPOCH":"2026-04-25T10:52:03.285984","MEAN_MOTION":14.509017,"ECCENTRICITY":0.008451,"INCLINATION":74.0232,"RA_OF_ASC_NODE":178.4057,"ARG_OF_PERICENTER":273.8993,"MEAN_ANOMALY":103.5812,"EPHEMERIS_TYPE":0,"CLASSIFICATION_TYPE":"U","NORAD_CAT_ID":35883,"ELEMENT_SET_NO":999,"REV_AT_EPOCH":64325,"BSTAR":0.00016827,"MEAN_MOTION_DOT":6.64e-6,"MEAN_MOTION_DDOT":0},{"OBJECT_NAME":"COSMOS 2251 DEB","OBJECT_ID":"1993-036ATX","EPOCH":"2026-04-23T16:00:08.894304","MEAN_MOTION":14.26656963,"ECCENTRICITY":0.01143625,"INCLINATION":73.988,"RA_OF_ASC_NODE":96.9082,"ARG_OF_PERICENTER":213.425,"MEAN_ANOMALY":145.9645,"EPHEMERIS_TYPE":0,"CLASSIFICATION_TYPE":"U","NORAD_CAT_ID":35884,"ELEMENT_SET_NO":999,"REV_AT_EPOCH":24238,"BSTAR":0.00076268647,"MEAN_MOTION_DOT":1.949e-5,"MEAN_MOTION_DDOT":0},{"OBJECT_NAME":"COSMOS 2251 DEB","OBJECT_ID":"1993-036ATY","EPOCH":"2026-04-25T12:15:03.508128","MEAN_MOTION":14.37767729,"ECCENTRICITY":0.0022803,"INCLINATION":74.0293,"RA_OF_ASC_NODE":48.4406,"ARG_OF_PERICENTER":102.2199,"MEAN_ANOMALY":258.1511,"EPHEMERIS_TYPE":0,"CLASSIFICATION_TYPE":"U","NORAD_CAT_ID":35885,"ELEMENT_SET_NO":999,"REV_AT_EPOCH":66938,"BSTAR":0.00021235,"MEAN_MOTION_DOT":6.15e-6,"MEAN_MOTION_DDOT":0},{"OBJECT_NAME":"COSMOS 2251 DEB","OBJECT_ID":"1993-036AUB","EPOCH":"2026-04-25T07:30:02.318112","MEAN_MOTION":14.58859742,"ECCENTRICITY":0.0050537,"INCLINATION":74.0301,"RA_OF_ASC_NODE":102.2891,"ARG_OF_PERICENTER":201.4836,"MEAN_ANOMALY":158.4209,"EPHEMERIS_TYPE":0,"CLASSIFICATION_TYPE":"U","NORAD_CAT_ID":35888,"ELEMENT_SET_NO":999,"REV_AT_EPOCH":88221,"BSTAR":0.00026675,"MEAN_MOTION_DOT":1.24e-5,"MEAN_MOTION_DDOT":0},{"OBJECT_NAME":"COSMOS 2251 DEB","OBJECT_ID":"1993-036AUD","EPOCH":"2026-04-22T08:31:59.128608","MEAN_MOTION":14.59606001,"ECCENTRICITY":0.00545286,"INCLINATION":73.9362,"RA_OF_ASC_NODE":352.4765,"ARG_OF_PERICENTER":92.0492,"MEAN_ANOMALY":268.6919,"EPHEMERIS_TYPE":0,"CLASSIFICATION_TYPE":"U","NORAD_CAT_ID":35890,"ELEMENT_SET_NO":999,"REV_AT_EPOCH":67055,"BSTAR":0.00096499103,"MEAN_MOTION_DOT":4.66e-5,"MEAN_MOTION_DDOT":0},{"OBJECT_NAME":"COSMOS 2251 DEB","OBJECT_ID":"1993-036AUE","EPOCH":"2026-04-25T11:34:55.280064","MEAN_MOTION":15.48892997,"ECCENTRICITY":0.0036776,"INCLINATION":73.982,"RA_OF_ASC_NODE":163.6406,"ARG_OF_PERICENTER":262.0461,"MEAN_ANOMALY":97.6577,"EPHEMERIS_TYPE":0,"CLASSIFICATION_TYPE":"U","NORAD_CAT_ID":35891,"ELEMENT_SET_NO":999,"REV_AT_EPOCH":69280,"BSTAR":0.00097337,"MEAN_MOTION_DOT":0.00054263,"MEAN_MOTION_DDOT":0},{"OBJECT_NAME":"COSMOS 2251 DEB","OBJECT_ID":"1993-036AUJ","EPOCH":"2026-04-10T19:46:36.779520","MEAN_MOTION":14.02261385,"ECCENTRICITY":0.02047878,"INCLINATION":74.0489,"RA_OF_ASC_NODE":140.9499,"ARG_OF_PERICENTER":212.2492,"MEAN_ANOMALY":146.5989,"EPHEMERIS_TYPE":0,"CLASSIFICATION_TYPE":"U","NORAD_CAT_ID":35895,"ELEMENT_SET_NO":999,"REV_AT_EPOCH":60681,"BSTAR":0.00080810281,"MEAN_MOTION_DOT":1.464e-5,"MEAN_MOTION_DDOT":0},{"OBJECT_NAME":"COSMOS 2251 DEB","OBJECT_ID":"1993-036AUM","EPOCH":"2026-04-25T02:47:37.154400","MEAN_MOTION":14.96951863,"ECCENTRICITY":0.00781523,"INCLINATION":73.9919,"RA_OF_ASC_NODE":27.3152,"ARG_OF_PERICENTER":138.7347,"MEAN_ANOMALY":288.2923,"EPHEMERIS_TYPE":0,"CLASSIFICATION_TYPE":"U","NORAD_CAT_ID":35898,"ELEMENT_SET_NO":999,"REV_AT_EPOCH":68804,"BSTAR":0.00047585703,"MEAN_MOTION_DOT":5.784e-5,"MEAN_MOTION_DDOT":0},{"OBJECT_NAME":"COSMOS 2251 DEB","OBJECT_ID":"1993-036AUQ","EPOCH":"2026-04-24T16:57:37.355904","MEAN_MOTION":15.31867847,"ECCENTRICITY":0.0011056,"INCLINATION":74.0027,"RA_OF_ASC_NODE":104.3005,"ARG_OF_PERICENTER":245.5809,"MEAN_ANOMALY":114.4241,"EPHEMERIS_TYPE":0,"CLASSIFICATION_TYPE":"U","NORAD_CAT_ID":35901,"ELEMENT_SET_NO":999,"REV_AT_EPOCH":88145,"BSTAR":0.0036417,"MEAN_MOTION_DOT":0.00113971,"MEAN_MOTION_DDOT":0},{"OBJECT_NAME":"COSMOS 2251 DEB","OBJECT_ID":"1993-036AUR","EPOCH":"2026-04-21T08:43:45.179040","MEAN_MOTION":14.27624702,"ECCENTRICITY":0.01019411,"INCLINATION":73.9859,"RA_OF_ASC_NODE":359.1621,"ARG_OF_PERICENTER":86.3707,"MEAN_ANOMALY":274.9092,"EPHEMERIS_TYPE":0,"CLASSIFICATION_TYPE":"U","NORAD_CAT_ID":35902,"ELEMENT_SET_NO":999,"REV_AT_EPOCH":62979,"BSTAR":0.00076179927,"MEAN_MOTION_DOT":1.958e-5,"MEAN_MOTION_DDOT":0},{"OBJECT_NAME":"COSMOS 2251 DEB","OBJECT_ID":"1993-036AUU","EPOCH":"2026-04-25T04:59:45.832704","MEAN_MOTION":15.01306777,"ECCENTRICITY":0.0085392,"INCLINATION":74.0325,"RA_OF_ASC_NODE":299.3355,"ARG_OF_PERICENTER":343.6572,"MEAN_ANOMALY":16.1863,"EPHEMERIS_TYPE":0,"CLASSIFICATION_TYPE":"U","NORAD_CAT_ID":35905,"ELEMENT_SET_NO":999,"REV_AT_EPOCH":90584,"BSTAR":0.00034962,"MEAN_MOTION_DOT":4.823e-5,"MEAN_MOTION_DDOT":0},{"OBJECT_NAME":"COSMOS 2251 DEB","OBJECT_ID":"1993-036AUZ","EPOCH":"2026-04-25T02:51:42.023232","MEAN_MOTION":14.34230204,"ECCENTRICITY":0.00213805,"INCLINATION":74.0323,"RA_OF_ASC_NODE":67.8733,"ARG_OF_PERICENTER":121.1983,"MEAN_ANOMALY":239.1269,"EPHEMERIS_TYPE":0,"CLASSIFICATION_TYPE":"U","NORAD_CAT_ID":35959,"ELEMENT_SET_NO":999,"REV_AT_EPOCH":86840,"BSTAR":8.1205369e-5,"MEAN_MOTION_DOT":2.02e-6,"MEAN_MOTION_DDOT":0}]
